C/2017 K5 (PANSTARRS),h,03/26.8582/2020,82.2330,102.3714,172.0194,1.006031,7.681126,2000,5.0,4.0
# From MPC114599
C/2017 K6 (Jacques),e,57.2409,85.0065,303.7525,1097,0.0000271,0.99818007,0.0000,01/03.5699/2018,2000,g 11.0,4.0
# From MPC110083
C/2017 M3 (PANSTARRS),e,77.5732,7.0265,110.3157,166.7425,0.0004578,0.97208083,0.0000,04/28.1382/2017,2000,g 10.5,4.0
# From MPC118093
C/2017 M4 (ATLAS),h,01/17.9425/2019,105.6488,65.8934,167.6084,1.001312,3.253428,2000,6.0,4.0
# From MPC118841
C/2017 M5 (TOTAS),h,06/04.3847/2018,15.8736,216.2859,92.7887,1.005492,5.996355,2000,6.5,4.0
# From MPC114599
C/2017 O1 (ASASSN),e,39.9319,25.7430,20.8365,359.4781,0.0001446,0.99584651,0.0000,10/15.1008/2017,2000,g 11.0,4.0
# From MPC114599
P/2017 P1 (PANSTARRS),e,7.6944,221.3936,122.3928,7.900101,0.0443869,0.31093454,49.1280,07/01.0/2021,2000,g 10.0,4.0
# From MPC114599
C/2017 P2 (PANSTARRS),e,50.0501,165.4677,132.4127,2333,0.0000087,0.99894207,0.0000,12/06.5615/2017,2000,g 10.0,4.0
# From MPC114599
P/2017 R1 (PANSTARRS),e,2.5743,143.6164,178.6387,4.135055,0.1172147,0.19569745,180.7741,07/01.0/2021,2000,g 13.5,4.0
# From MPC108595
C/2017 S2 (PANSTARRS),e,12.6746,62.3782,305.9990,20.57429,0.0105613,0.82446712,14.7955,07/01.0/2021,2000,g 13.0,4.0
# From MPC114599
C/2017 S3 (PANSTARRS),h,08/16.1431/2018,99.1801,171.2615,255.8301,1.000060,0.207539,2000,11.0,4.0
# From MPC114599
P/2017 S5 (ATLAS),e,11.8524,252.3672,99.8924,3.167558,0.1748305,0.31435364,250.4742,07/01.0/2021,2000,g 14.0,4.0
# From MPC109591
C/2017 S6 (Catalina),h,02/26.2769/2018,152.8674,131.0427,134.8522,1.000687,1.546007,2000,12.5,4.0
# From MPC114599
C/2017 S7 (Lemmon),e,124.2269,262.7665,187.5502,27211,0.0000002,0.99972046,0.0000,05/24.6132/2017,2000,g  7.0,4.0
# From MPC114599
P/2017 S8 (PANSTARRS),e,29.8313,191.5699,254.7622,2.780763,0.2125486,0.39162489,266.0310,07/01.0/2021,2000,g 16.0,4.0
# From MPC107050
P/2017 S9 (PANSTARRS),e,14.1439,146.2231,237.7004,3.153623,0.1759906,0.30527844,253.2257,07/01.0/2021,2000,g 17.0,4.0
# From MPC114600
C/2017 T1 (Heinze),e,96.8541,102.3657,96.9643,15038,0.0000005,0.99996118,0.0000,02/21.0245/2018,2000,g 14.5,4.0
# From MPC119996
C/2017 T2 (PANSTARRS),e,57.2256,64.3770,93.0023,2496,0.0000079,0.99935282,0.0000,05/04.9105/2020,2000,g  5.0,4.0
# From MPC114600
C/2017 T3 (ATLAS),e,88.1072,230.1159,246.8294,1185,0.0000242,0.99930395,0.0000,07/18.8560/2018,2000,g 10.0,4.0
# From MPC115882
P/2017 TW13 (Lemmon),e,44.8502,322.2983,119.9668,7.141606,0.0516429,0.70954325,57.1212,07/01.0/2021,2000,g 15.0,2.0
# From MPC114600
C/2017 U2 (Fuls),e,95.3869,149.7067,147.8165,2995,0.0000060,0.99775991,0.0000,08/28.1887/2017,2000,g  9.0,4.0
# From MPC114600
P/2017 U3 (PANSTARRS),e,15.9177,165.1089,296.7525,4.929052,0.0900656,0.09890766,72.7372,07/01.0/2021,2000,g 11.0,4.0
# From MPC114600
C/2017 U4 (PANSTARRS),h,09/23.0772/2018,158.2131,245.9382,159.0137,1.001832,7.720651,2000,7.0,4.0
# From MPC114600
C/2017 U5 (PANSTARRS),e,18.9763,163.0854,262.0112,16.87752,0.0142148,0.74408626,18.3434,07/01.0/2021,2000,g 12.0,4.0
# From MPC118841
C/2017 U7,h,09/14.1838/2019,142.5911,276.2448,326.3209,1.000466,6.423599,2000,8.3,2.0
# From MPC114600
C/2017 W2 (Leonard),e,98.1990,312.8414,169.0008,13.64907,0.0195456,0.71055788,26.1508,07/01.0/2021,2000,g 11.0,4.0
# From MPC114601
P/2017 W3 (Gibbs),e,18.1671,210.2702,327.8340,7.841517,0.0448853,0.50718321,54.6850,07/01.0/2021,2000,g 10.5,4.0
# From MPC115883
C/2017 X1 (PANSTARRS),e,31.3077,251.1313,283.2748,31.26127,0.0056389,0.85063303,6.2704,07/01.0/2021,2000,g 10.0,4.0
# From MPC117069
C/2017 Y1 (PANSTARRS),e,55.2656,307.5283,134.2853,1772,0.0000132,0.99790703,0.0000,08/31.2213/2017,2000,g 11.5,4.0
# From MPC118841
C/2017 Y2 (PANSTARRS),h,11/04.7814/2020,128.4119,65.9943,147.8975,1.000803,4.632371,2000,15.0,4.0
# From MPC111770
P/2017 Y3 (Leonard),e,27.5579,153.8434,67.6090,9.842747,0.0319176,0.86998355,39.4697,07/01.0/2021,2000,g 16.5,4.0
# From MPC114601
C/2018 A1 (PANSTARRS),e,53.6127,336.6581,96.2401,25.09671,0.0078393,0.90385771,10.5784,07/01.0/2021,2000,g 12.5,4.0
# From MPC119996
C/2018 A3 (ATLAS),e,139.5393,194.2935,86.3780,443.4457,0.0001055,0.99261344,0.0000,01/12.4075/2019,2000,g  8.5,4.0
# From MPC114601
C/2018 A4 (PANSTARRS),e,3.1485,97.6231,356.0139,12.19522,0.0231430,0.80335972,26.3711,07/01.0/2021,2000,g 14.0,4.0
# From MPC109147
P/2018 A5 (PANSTARRS),e,23.5842,87.8179,359.5424,5.633655,0.0737087,0.52240397,101.4961,07/01.0/2021,2000,g 15.0,4.0
# From MPC119996
C/2018 A6 (Gibbs),e,77.0291,340.3767,264.5220,15.25201,0.0165468,0.80205739,11.8840,07/01.0/2021,2000,g  9.0,4.0
# From MPC118841
C/2018 B1 (Lemmon),h,03/29.1670/2018,162.4201,133.1907,68.3184,1.000397,5.118014,2000,9.0,4.0
# From MPC114601
P/2018 C1 (Lemmon-Read),e,5.1180,270.3715,235.7061,5.654334,0.0733047,0.53267120,89.5602,07/01.0/2021,2000,g 13.5,4.0
# From MPC114601
C/2018 C2 (Lemmon),h,06/01.4709/2018,34.4605,91.1588,134.1079,1.000603,1.959065,2000,13.0,4.0
# From MPEC 2020-AA5
C/2018 DO4 (Lemmon),e,160.4657,251.2691,176.1743,25.66478,0.0075805,0.90606553,5.1771,07/01.0/2021,2000,g 11.0,4.0
# From MPC114602
C/2018 E1 (ATLAS),e,72.5166,146.8676,299.3700,53.90671,0.0024902,0.94990947,2.9150,07/01.0/2021,2000,g 10.5,4.0
# From MPC114602
C/2018 E2 (Barros),e,97.6918,67.1890,277.4596,3996,0.0000039,0.99901918,0.0000,12/24.0311/2017,2000,g 10.5,4.0
# From MPC114602
C/2018 EN4 (NEOWISE),e,81.7095,136.1374,35.0227,18.18119,0.0127137,0.92012161,14.2464,07/01.0/2021,2000,g 15.0,4.0
# From MPC114602
C/2018 EF9 (Lemmon),e,84.6288,172.5602,72.6201,526.5295,0.0000816,0.99704059,0.0000,05/22.5722/2018,2000,g 18.0,2.0
# From MPC115883
C/2018 F1 (Grauer),e,46.0778,177.2758,71.6276,274.6362,0.0002166,0.98909559,0.0000,12/13.5307/2018,2000,g 11.5,4.0
# From MPC110084
C/2018 F3 (Johnson),p,08/15.2314/2017,105.5348,293.0113,2.483172,173.0311,2000,13.0,4.0
# From MPC119996
C/2018 F4 (PANSTARRS),h,12/04.1002/2019,78.0898,26.5147,263.2326,1.001114,3.440709,2000,11.9,2.0
# From MPC114602
P/2018 H2 (PANSTARRS),e,7.3891,68.3627,119.9522,4.390970,0.1071182,0.54028596,134.5110,07/01.0/2021,2000,g 16.6,2.0
# From MPC114602
C/2018 K1 (Weiland),e,164.1951,260.0633,325.1199,30.03169,0.0059887,0.93730883,7.0733,07/01.0/2021,2000,g 14.9,4.0
# From MPC118094
C/2018 KJ3 (Lemmon),e,136.7058,91.6082,217.6784,884.9896,0.0000374,0.99589881,0.0000,09/09.7904/2019,2000,g 12.2,2.0
# From MPC114602
P/2018 L1 (PANSTARRS),e,10.5905,268.6320,18.0015,3.651399,0.1412587,0.48270944,135.8102,07/01.0/2021,2000,g 15.0,4.0
# From MPC118841
C/2018 L2 (ATLAS),e,67.3657,243.0223,56.2839,261.1300,0.0002336,0.99343923,0.0000,12/02.6843/2018,2000,g 10.0,4.0
# From MPC114603
P/2018 L4 (PANSTARRS),e,26.6254,145.1522,140.5866,4.941745,0.0897188,0.66001129,95.5681,07/01.0/2021,2000,g 17.5,4.0
# From MPC119996
P/2018 L5 (Leonard),e,2.2081,219.1073,93.8442,3.628075,0.1426230,0.36473225,164.4074,07/01.0/2021,2000,g 14.5,4.0
# From MPC117070
C/2018 M1 (Catalina),e,37.2983,339.4111,14.1763,21.38544,0.0099661,0.93909265,10.8289,07/01.0/2021,2000,g 15.5,4.0
# From MPC112393
C/2018 N1 (NEOWISE),e,159.4416,292.4542,354.6515,360.1680,0.0001442,0.99636144,0.0000,08/02.0144/2018,2000,g 15.5,4.0
# From MPC119996
C/2018 N2 (ASASSN),h,11/10.9911/2019,77.5316,25.2356,24.4111,1.000168,3.124985,2000,6.0,4.0
# From MPC114603
C/2018 O1 (ATLAS),e,154.0346,87.6653,162.6144,27.96124,0.0066661,0.94417967,6.8949,07/01.0/2021,2000,g 17.0,4.0
# From MPC114603
P/2018 P3 (PANSTARRS),e,8.9099,59.1752,305.8882,3.005862,0.1891257,0.41665748,188.1741,07/01.0/2021,2000,g 14.5,4.0
# From MPC114603
P/2018 P4 (PANSTARRS),e,23.1082,353.0681,8.2567,6.674289,0.0571606,0.45054157,55.2060,07/01.0/2021,2000,g 12.0,4.0
# From MPC118094
C/2018 P5 (PANSTARRS),e,7.2515,216.2350,131.7671,12.80934,0.0214988,0.64256276,18.3747,07/01.0/2021,2000,g 11.0,4.0
# From MPC118841
C/2018 R3 (Lemmon),e,69.7297,324.6421,112.8109,1613,0.0000152,0.99920122,0.0000,06/07.2853/2019,2000,g  9.5,4.0
# From MPC112393
C/2018 R4 (Fuls),e,11.6826,298.4462,345.2994,334.0460,0.0001614,0.99486437,0.0000,03/03.5504/2018,2000,g 14.0,4.0
# From MPC114603
C/2018 R5 (Lemmon),e,103.7484,171.1217,178.0693,22.79177,0.0090581,0.84098023,8.1793,07/01.0/2021,2000,g 11.5,4.0
# From MPC119996
C/2018 U1 (Lemmon),h,11/02.9719/2021,108.2964,75.4809,180.4538,1.001327,4.992839,2000,5.0,4.0
# From MPC114604
C/2018 V1 (Machholz-Fujikawa-Iwamoto),h,12/03.1681/2018,144.0549,128.8835,88.8622,1.000336,0.386803,2000,12.0,4.0
# From MPC115884
C/2018 V2 (ATLAS),e,159.1679,357.0860,318.9450,25.08449,0.0078451,0.90121538,7.4361,07/01.0/2021,2000,g 15.0,4.0
# From MPC114604
P/2018 VN2 (Leonard),e,18.2510,226.4988,138.7563,4.064482,0.1202808,0.47862412,134.8435,07/01.0/2021,2000,g 15.0,4.0
# From MPC117070
A/2018 V3,e,164.9779,308.6567,3.5384,122.9187,0.0007232,0.98909148,0.0000,09/08.6981/2019,2000,g 15.7,2.0
# From MPC114604
C/2018 V4 (Africano),e,69.0047,78.3542,359.9336,204.6934,0.0003365,0.98438381,0.0000,03/01.3834/2019,2000,g 12.5,4.0
# From MPC114604
P/2018 V5 (Trujillo-Sheppard),e,10.5867,171.2874,260.6784,8.954225,0.0367843,0.47474202,36.8656,07/01.0/2021,2000,g 12.5,4.0
# From MPC115884
C/2018 W1 (Catalina),e,83.2818,233.6010,251.2443,21.69340,0.0097547,0.93727825,7.6216,07/01.0/2021,2000,g 15.7,2.0
# From MPC119996
C/2018 W2 (Africano),h,09/05.5899/2019,116.6192,181.8400,157.9799,1.000394,1.455621,2000,9.5,4.0
# From MPC119996
C/2018 X2 (Fitzsimmons),e,23.0693,340.8301,162.0417,145.4717,0.0005617,0.98538330,0.0000,07/08.3337/2019,2000,g 12.0,4.0
# From MPC114604
C/2018 X3 (PANSTARRS),e,43.3745,78.8959,359.7437,12.37315,0.0226456,0.78215894,20.6851,07/01.0/2021,2000,g 14.5,4.0
# From MPC118842
C/2018 Y1 (Iwamoto),e,160.3989,147.5140,358.0051,139.0664,0.0006010,0.99076320,0.0000,02/06.9372/2019,2000,g 11.5,4.0
# From MPC114605
P/2018 Y2 (Africano),e,11.6825,297.2616,162.3214,7.459650,0.0483756,0.47862370,44.0911,07/01.0/2021,2000,g 11.5,4.0
# From MPC114605
P/2019 A1 (PANSTARRS),e,13.7443,312.3020,150.7656,5.121568,0.0850354,0.56835129,84.5603,07/01.0/2021,2000,g 16.0,4.0
# From MPC114605
